{"type": "FeatureCollection", "features": [ {"type": "Feature", "properties": {"norad_id": 36622, "name": "COSMOS 2251 DEB", "group": "cosmos-2251-debris", "lat": 23.820053671114778, "lon": -23.833302820444285, "alt_km": 680.5554327027512, "timestamp": "2025-12-03T13:52:09.964373+00:00", "meta": {"OBJECT_NAME": "COSMOS 2251 DEB", "OBJECT_ID": "1993-036BEL", "EPOCH": "2025-12-03T05:01:52.298976", "MEAN_MOTION": 14.76060389, "ECCENTRICITY": 0.00686545, "INCLINATION": 74.0123, "RA_OF_ASC_NODE": 164.1599, "ARG_OF_PERICENTER": 301.45, "MEAN_ANOMALY": 57.9974, "EPHEMERIS_TYPE": 0, "CLASSIFICATION_TYPE": "U", "NORAD_CAT_ID": 36622, "ELEMENT_SET_NO": 999, "REV_AT_EPOCH": 66609, "BSTAR": 0.00079709873, "MEAN_MOTION_DOT": 5.681e-05, "MEAN_MOTION_DDOT": 0}, "tle": {"line1": "1 36622U 93036BEL 25337.20963309  .00005681  00000+0  79710-3 0  9998", "line2": "2 36622  74.0123 164.1599 0068654 301.4500  57.9974 14.76060389666097"}}, "geometry": {"type": "Point", "coordinates": [-23.833302820444285, 23.820053671114778]}}, {"type": "Feature", "properties": {"norad_id": 36632, "name": "COSMOS 2251 DEB", "group": "cosmos-2251-debris", "lat": -34.04521679835041, "lon": -61.75598569319933, "alt_km": 756.1514252436646, "timestamp": "2025-12-03T13:52:09.964384+00:00", "meta": {"OBJECT_NAME": "COSMOS 2251 DEB", "OBJECT_ID": "1993-036BEW", "EPOCH": "2025-12-02T14:44:27.820896", "MEAN_MOTION": 14.43079898, "ECCENTRICITY": 0.00315122, "INCLINATION": 74.0016, "RA_OF_ASC_NODE": 311.214, "ARG_OF_PERICENTER": 61.7706, "MEAN_ANOMALY": 298.6626, "EPHEMERIS_TYPE": 0, "CLASSIFICATION_TYPE": "U", "NORAD_CAT_ID": 36632, "ELEMENT_SET_NO": 999, "REV_AT_EPOCH": 65069, "BSTAR": 0.0010615143, "MEAN_MOTION_DOT": 3.557e-05, "MEAN_MOTION_DDOT": 0}, "tle": {"line1": "1 36632U 93036BEW 25336.61421089  .00003557  00000+0  10615-2 0  9995", "line2": "2 36632  74.0016 311.2140 0031512  61.7706 298.6626 14.43079898650699"}}, "geometry": {"type": "Point", "coordinates": [-61.75598569319933, -34.04521679835041]}}, {"type": "Feature", "properties": {"norad_id": 37084, "name": "COSMOS 2251 DEB", "group": "cosmos-2251-debris", "lat": -40.95528607764416, "lon": 14.502413614505544, "alt_km": 518.1538908922657, "timestamp": "2025-12-03T13:52:09.964395+00:00", "meta": {"OBJECT_NAME": "COSMOS 2251 DEB", "OBJECT_ID": "1993-036BFE", "EPOCH": "2025-12-01T06:28:31.045728", "MEAN_MOTION": 15.00732489, "ECCENTRICITY": 0.0098181, "INCLINATION": 74.0271, "RA_OF_ASC_NODE": 184.8055, "ARG_OF_PERICENTER": 268.0487, "MEAN_ANOMALY": 90.9454, "EPHEMERIS_TYPE": 0, "CLASSIFICATION_TYPE": "U", "NORAD_CAT_ID": 37084, "ELEMENT_SET_NO": 999, "REV_AT_EPOCH": 66095, "BSTAR": 0.00060454, "MEAN_MOTION_DOT": 8.458e-05, "MEAN_MOTION_DDOT": 0}, "tle": {"line1": "1 37084U 93036BFE 25335.26980377  .00008458  00000+0  60454-3 0  9999", "line2": "2 37084  74.0271 184.8055 0098181 268.0487  90.9454 15.00732489660954"}}, "geometry": {"type": "Point", "coordinates": [14.502413614505544, -40.95528607764416]}}, {"type": "Feature", "properties": {"norad_id": 37085, "name": "COSMOS 2251 DEB", "group": "cosmos-2251-debris", "lat": 47.97368607385995, "lon": -105.41203143764233, "alt_km": 429.79024176907933, "timestamp": "2025-12-03T13:52:09.964405+00:00", "meta": {"OBJECT_NAME": "COSMOS 2251 DEB", "OBJECT_ID": "1993-036BFF", "EPOCH": "2025-12-02T23:36:37.668384", "MEAN_MOTION": 15.39020756, "ECCENTRICITY": 0.0022856, "INCLINATION": 73.9503, "RA_OF_ASC_NODE": 237.2473, "ARG_OF_PERICENTER": 76.375, "MEAN_ANOMALY": 284, "EPHEMERIS_TYPE": 0, "CLASSIFICATION_TYPE": "U", "NORAD_CAT_ID": 37085, "ELEMENT_SET_NO": 999, "REV_AT_EPOCH": 66987, "BSTAR": 0.0028642077, "MEAN_MOTION_DOT": 0.00113322, "MEAN_MOTION_DDOT": 0}, "tle": {"line1": "1 37085U 93036BFF 25336.98376931  .00113322  00000+0  28642-2 0  9994", "line2": "2 37085  73.9503 237.2473 0022856  76.3750 284.0000 15.39020756669879"}}, "geometry": {"type": "Point", "coordinates": [-105.41203143764233, 47.97368607385995]}}, {"type": "Feature", "properties": {"norad_id": 37089, "name": "COSMOS 2251 DEB", "group": "cosmos-2251-debris", "lat": -15.141922417377911, "lon": -12.519787161203613, "alt_km": 686.3285006682299, "timestamp": "2025-12-03T13:52:09.964416+00:00", "meta": {"OBJECT_NAME": "COSMOS 2251 DEB", "OBJECT_ID": "1993-036BFK", "EPOCH": "2025-11-27T19:45:58.315104", "MEAN_MOTION": 14.52523041, "ECCENTRICITY": 0.0136019, "INCLINATION": 74.0379, "RA_OF_ASC_NODE": 173.8866, "ARG_OF_PERICENTER": 277.3049, "MEAN_ANOMALY": 81.267, "EPHEMERIS_TYPE": 0, "CLASSIFICATION_TYPE": "U", "NORAD_CAT_ID": 37089, "ELEMENT_SET_NO": 999, "REV_AT_EPOCH": 65893, "BSTAR": 0.0020033475, "MEAN_MOTION_DOT": 9.221e-05, "MEAN_MOTION_DDOT": 0}, "tle": {"line1": "1 37089U 93036BFK 25331.82359161  .00009221  00000+0  20033-2 0  9990", "line2": "2 37089  74.0379 173.8866 0136019 277.3049  81.2670 14.52523041658932"}}, "geometry": {"type": "Point", "coordinates": [-12.519787161203613, -15.141922417377911]}}, {"type": "Feature", "properties": {"norad_id": 37094, "name": "COSMOS 2251 DEB", "group": "cosmos-2251-debris", "lat": 72.42892937130172, "lon": -106.16108914083446, "alt_km": 699.1994483713388, "timestamp": "2025-12-03T13:52:09.964427+00:00", "meta": {"OBJECT_NAME": "COSMOS 2251 DEB", "OBJECT_ID": "1993-036BFQ", "EPOCH": "2025-12-01T04:38:30.122016", "MEAN_MOTION": 14.37719988, "ECCENTRICITY": 0.0084296, "INCLINATION": 74.1075, "RA_OF_ASC_NODE": 142.3264, "ARG_OF_PERICENTER": 111.6851, "MEAN_ANOMALY": 249.3305, "EPHEMERIS_TYPE": 0, "CLASSIFICATION_TYPE": "U", "NORAD_CAT_ID": 37094, "ELEMENT_SET_NO": 999, "REV_AT_EPOCH": 84340, "BSTAR": 0.0011679, "MEAN_MOTION_DOT": 3.636e-05, "MEAN_MOTION_DDOT": 0}, "tle": {"line1": "1 37094U 93036BFQ 25335.19340419  .00003636  00000+0  11679-2 0  9996", "line2": "2 37094  74.1075 142.3264 0084296 111.6851 249.3305 14.37719988843405"}}, "geometry": {"type": "Point", "coordinates": [-106.16108914083446, 72.42892937130172]}}, {"type": "Feature", "properties": {"norad_id": 37095, "name": "COSMOS 2251 DEB", "group": "cosmos-2251-debris", "lat": 71.36857627972086, "lon": -94.68704579887375, "alt_km": 1016.7384482381594, "timestamp": "2025-12-03T13:52:09.964437+00:00", "meta": {"OBJECT_NAME": "COSMOS 2251 DEB", "OBJECT_ID": "1993-036BFR", "EPOCH": "2025-12-02T08:23:30.966144", "MEAN_MOTION": 14.03314809, "ECCENTRICITY": 0.01958196, "INCLINATION": 73.8483, "RA_OF_ASC_NODE": 208.2093, "ARG_OF_PERICENTER": 267.7854, "MEAN_ANOMALY": 90.0848, "EPHEMERIS_TYPE": 0, "CLASSIFICATION_TYPE": "U", "NORAD_CAT_ID": 37095, "ELEMENT_SET_NO": 999, "REV_AT_EPOCH": 62490, "BSTAR": 0.0015878918, "MEAN_MOTION_DOT": 2.912e-05, "MEAN_MOTION_DDOT": 0}, "tle": {"line1": "1 37095U 93036BFR 25336.34966396  .00002912  00000+0  15879-2 0  9995", "line2": "2 37095  73.8483 208.2093 0195819 267.7854  90.0848 14.03314809624908"}}, "geometry": {"type": "Point", "coordinates": [-94.68704579887375, 71.36857627972086]}}, {"type": "Feature", "properties": {"norad_id": 37108, "name": "COSMOS 2251 DEB", "group": "cosmos-2251-debris", "lat": -41.59116128501785, "lon": 82.80776929334574, "alt_km": 811.379314033381, "timestamp": "2025-12-03T13:52:09.964448+00:00", "meta": {"OBJECT_NAME": "COSMOS 2251 DEB", "OBJECT_ID": "1993-036BGE", "EPOCH": "2025-12-02T08:05:10.630176", "MEAN_MOTION": 14.41120633, "ECCENTRICITY": 0.00925525, "INCLINATION": 74.0427, "RA_OF_ASC_NODE": 99.8151, "ARG_OF_PERICENTER": 178.899, "MEAN_ANOMALY": 181.2388, "EPHEMERIS_TYPE": 0, "CLASSIFICATION_TYPE": "U", "NORAD_CAT_ID": 37108, "ELEMENT_SET_NO": 999, "REV_AT_EPOCH": 85357, "BSTAR": 0.0020748567, "MEAN_MOTION_DOT": 7.015e-05, "MEAN_MOTION_DDOT": 0}, "tle": {"line1": "1 37108U 93036BGE 25336.33692859  .00007015  00000+0  20749-2 0  9990", "line2": "2 37108  74.0427  99.8151 0092552 178.8990 181.2388 14.41120633853577"}}, "geometry": {"type": "Point", "coordinates": [82.80776929334574, -41.59116128501785]}}, {"type": "Feature", "properties": {"norad_id": 37126, "name": "COSMOS 2251 DEB", "group": "cosmos-2251-debris", "lat": -61.1792594881256, "lon": -135.97611377446756, "alt_km": 572.0036132528412, "timestamp": "2025-12-03T13:52:09.964458+00:00", "meta": {"OBJECT_NAME": "COSMOS 2251 DEB", "OBJECT_ID": "1993-036BGY", "EPOCH": "2025-11-27T19:49:48.379296", "MEAN_MOTION": 14.7298682, "ECCENTRICITY": 0.01235898, "INCLINATION": 73.9551, "RA_OF_ASC_NODE": 23.7462, "ARG_OF_PERICENTER": 265.0836, "MEAN_ANOMALY": 93.6217, "EPHEMERIS_TYPE": 0, "CLASSIFICATION_TYPE": "U", "NORAD_CAT_ID": 37126, "ELEMENT_SET_NO": 999, "REV_AT_EPOCH": 7879, "BSTAR": 0.00028630481, "MEAN_MOTION_DOT": 2.036e-05, "MEAN_MOTION_DDOT": 0}, "tle": {"line1": "1 37126U 93036BGY 25331.82625439  .00002036  00000+0  28630-3 0  9995", "line2": "2 37126  73.9551  23.7462 0123589 265.0836  93.6217 14.72986820 78799"}}, "geometry": {"type": "Point", "coordinates": [-135.97611377446756, -61.1792594881256]}}, {"type": "Feature", "properties": {"norad_id": 37132, "name": "COSMOS 2251 DEB", "group": "cosmos-2251-debris", "lat": 32.64367756651837, "lon": 61.47061720532684, "alt_km": 637.310175189049, "timestamp": "2025-12-03T13:52:09.964468+00:00", "meta": {"OBJECT_NAME": "COSMOS 2251 DEB", "OBJECT_ID": "1993-036BHE", "EPOCH": "2025-11-29T01:57:55.161216", "MEAN_MOTION": 14.77491911, "ECCENTRICITY": 0.00393056, "INCLINATION": 74.0019, "RA_OF_ASC_NODE": 260.8973, "ARG_OF_PERICENTER": 60.0895, "MEAN_ANOMALY": 300.4174, "EPHEMERIS_TYPE": 0, "CLASSIFICATION_TYPE": "U", "NORAD_CAT_ID": 37132, "ELEMENT_SET_NO": 999, "REV_AT_EPOCH": 62214, "BSTAR": 0.0012599445, "MEAN_MOTION_DOT": 9.078e-05, "MEAN_MOTION_DDOT": 0}, "tle": {"line1": "1 37132U 93036BHE 25333.08188844  .00009078  00000+0  12599-2 0  9995", "line2": "2 37132  74.0019 260.8973 0039305  60.0895 300.4174 14.77491911622140"}}, "geometry": {"type": "Point", "coordinates": [61.47061720532684, 32.64367756651837]}}]}